#dP2019 10  5  0  0  0.00000000      96 __u+U IGS08 FIT  IAC
## 2073 518400.00000000   900.00000000 58761 0.0000000000000
+  116   C01C02C03C04C05C06C07C08C09C10C11C12C13C14C16C19C20
+        C21C22C23C24C25C26C27C28C29C30C32C33C34C35C36C37E01
+        E02E03E04E05E07E08E09E11E12E13E14E15E18E19E21E24E25
+        E26E27E30E31E33E36G01G02G03G04G05G06G07G08G09G10G11
+        G12G13G14G15G16G17G18G19G20G21G22G23G24G25G26G27G28
+        G29G30G31G32J01J02J03J07R01R02R03R05R07R08R09R11R12
+        R13R14R15R16R17R18R19R20R21R22R23R24R26R27  0  0  0
++        13 12 13 13 12  8  8  8  8  8  7  7  7  7  8  7  7
++         7  7  7  7  7  8  7  7  8  8  8  7  7  9  9  8  4
++         4  4  4  4  4  4  4  4  4  4  5  4  4  5  4  4  4
++         4  4  4  4  4  5  3  3  3  3  3  3  3  3  3  3  3
++         3  3  3  3  3  3  3  3  3  3  3  3  3  3  3  3  3
++         3  3  3  3  8  8  8 13  6  5  5  5  5  5  7  5  5
++         6  5  5  6  5  5  6  6  5  5  5  6  7  8  0  0  0
%c M  cc GPS ccc cccc cccc cccc cccc ccccc ccccc ccccc ccccc
%c cc cc ccc ccc cccc cccc cccc cccc ccccc ccccc ccccc ccccc
%f  1.2500000  1.025000000  0.00000000000  0.000000000000000
%f  0.0000000  0.000000000  0.00000000000  0.000000000000000
%i    0    0    0    0      0      0      0      0         0
%i    0    0    0    0      0      0      0      0         0
/* INFORMATION & ANALYSIS CENTER (IAC)            FINAL DATA
/* S/V CLOCKS ARE ALIGNED TO GNSS TIME                      
/* G:C1WC2W R:C1PC2P E:C1XC5X C:C2IC6I J:C1CC2S             
/* PCV:IGS14_2070 OL/AL:FES2004  NONE     YN ORB:CoN CLK:CoN
*  2019 10 05 12 45  0.00000000
PC01 -32312.018705  27116.544668   -351.925261    -24.851158
PC02   4395.120084  41914.411122   -418.320900    277.448444
PC03 -14752.637281  39497.972100   -746.935799    221.227264
PC04 -39628.517806  14471.834057   -309.733396   -386.311501
PC05  21931.259824  36004.559333   -332.173402    108.244585
PC06 -23214.701190  26282.560428  23465.800637    376.997396
PC07 -14205.470084  37955.101409  12684.351150   -174.701612
PC08  -8709.558918  20611.774956 -35630.054254    -11.976909
PC09  -7579.245742  26385.732048  32138.577435     17.630818
PC10  -4360.752862  42168.106303     35.216454   -240.369048
PC11  25053.334155  -6411.210396  10451.292511     74.260862
PC12  20666.260254  10370.128344 -15492.676207   -253.315794
PC13   5378.170350  29156.817586 -29814.350178   -859.240996
PC14  19303.878854 -15435.448319  12925.951463    512.715320
PC16 -19499.803547  26714.127020  26074.054383   -886.506069
PC19 -16368.954765  22121.922662  -4659.631267    210.619051
PC20 -19233.481239   7021.416892 -18963.805974   -138.671648
PC21  10699.845994  12759.644125  22406.795463    273.221071
PC22  -4008.893738  24600.450338  12578.822428   -185.151553
PC23  -5795.106145 -25290.460421 -10253.331096   -919.558454
PC24  18752.019435   4222.856870 -20217.650247   -888.161329
PC25   8593.133470 -15432.686398 -21604.435881   -369.834433
PC26  17968.634113  19977.830115  -7476.970000    411.907990
PC27 -20526.434237 -11056.003445  15312.253487    201.450901
PC28  -1135.258443 -15894.226929  22911.839303    195.863581
PC29 -18406.509798  12154.374757 -17102.974844    127.860019
PC30 -27857.705726   1135.491690  -1017.459339    203.611126
PC32 -10815.537033 -12656.894018 -22387.185471   -906.776614
PC33  16305.318724 -22132.564177   4744.047068   -442.909231
PC34  27856.573174  -1234.893937   1309.992817   -129.994557
PC35   1576.356596  15906.658912 -22873.367765   -411.736923
PC36  -9086.371763  15081.963916  21685.715303   -935.335221
PC37 -17340.097524 -20722.394229   7020.688577   -568.920438
PE01 -10848.548849  19539.317376  19420.843649   -704.201920
PE02  10800.194027 -19608.282973 -19360.588596     83.334135
PE03  22147.502163 -19299.131530  -3566.390246   -218.410463
PE04  -6276.905790  21544.503837  19306.005225   -379.177012
PE05  25203.131137  -5717.882392  14426.716036   -442.713398
PE07 -13510.649269 -11117.166447 -23873.818520   -277.929147
PE08   6015.388211 -21454.523185 -19479.112807   6282.139027
PE09  13530.310841  10882.936218  23972.006510   6294.878346
PE11  22735.486251  16500.995346  -9342.981160   5565.475079
PE12   4087.530295  18286.645103 -22915.808734   6164.917920
PE13 -22731.296727 -16419.350057   9492.474344    393.776154
PE14 -10164.133663  21082.789552 -21784.088087   -745.275410
PE15  -4566.124765 -18268.719679  22843.818465    892.781862
PE18  14861.160175 -14428.136894  12851.084068   -839.695354
PE19 -23161.420256  18363.086116   1590.003152     -3.592193
PE21 -16535.046295  -1791.357641  24492.250750   -558.584979
PE24  12493.195138  22088.897031 -15227.697289   5835.864336
PE25  16530.570897   1906.541936 -24466.876237   1657.207251
PE26 -27577.833994  -4979.638913  -9554.757786   4029.179054
PE27 -12536.267202 -22130.440288  15151.894344    373.256246
PE30  -1045.099282 -29430.734196  -3011.918101   4491.872649
PE31   1171.344179  29421.992498   3085.017740   -469.243363
PE33 -16323.624694   9405.363904 -22829.099794   -470.789793
PE36  27606.719215   4932.740167   9462.911249    653.543665
PG01  21893.239237  13543.362151   6972.082969   -151.919625
PG02 -11311.203392 -20627.766648  13068.310345   -319.500086
PG03  14186.939082   5675.812553  21673.558230    -18.647979
PG04   -723.227248  16475.368300 -21010.182772    -13.926361
PG05  -4577.998939 -23152.939440 -12123.410957     -2.036502
PG06   2756.344634 -16360.546504  20776.062722    -80.087218
PG07  19127.246172    -30.567399 -18343.271018   -120.663777
PG08  16975.502958   7867.159236 -18899.240199     -8.847741
PG09  25458.665643  -7344.636586   1831.477345    -48.680446
PG10 -11425.133703  21775.794180  -9687.404369    -81.633300
PG11  24770.416000   8942.601937  -2302.868638   -487.197850
PG12 -11458.821129 -11145.624612  21027.919695    197.154761
PG13  -7249.524562 -13766.314969 -21650.071407    -40.581853
PG14  -7596.357236  16155.909375  19934.515587    -57.752842
PG15 -18632.070439  -6673.635509 -18170.357032   -282.087783
PG16    570.452779  23911.877762 -11248.243154    -80.421137
PG17  16972.737827 -14589.691888  14650.190652    138.455513
PG18  19747.991522  17778.830013  -1996.486533     90.815217
PG19  11300.682392 -15055.947153  18449.526843   -257.936546
PG20 -14232.573723  14021.957111 -17515.981384    527.103782
PG21 -16024.163165   5262.562283 -19684.921511   -107.424837
PG22  12705.564165  13592.024355  19206.731174   -761.257037
PG23  23823.965909   1206.207924  12423.146431   -163.153056
PG24 -22376.085900 -13970.985387   4259.776534     -3.012670
PG25 -15590.868154   4997.760606  20646.471132    -14.522832
PG26  -4191.805875  26110.536875   -775.807708     54.581075
PG27   4252.704859  14253.251569 -22113.212883    -77.696212
PG28  12555.767860 -21695.227170  -8333.907255    760.082278
PG29 -25988.887281   4012.376430   3797.462411     79.485254
PG30  11289.786922 -10848.676107 -21423.982021    -55.077561
PG31  -1634.991571  17536.487047  19730.210545      5.737369
PG32 -16300.040542  15723.909030  13832.413845     80.886885
PJ01 -25281.808779  32777.636919  -3478.104476   -341.557259
PJ02 -24668.517395  24155.525366  29007.722102     -5.208611
PJ03 -35041.983502  18213.902696 -10166.344849     -3.225901
PJ07 -25418.303653  33648.540070     10.578543     -0.120305
PR01   5017.340417 -18627.916951 -16683.666295     50.719020
PR02 -10916.303219  -3804.176482 -22698.771381    391.380229
PR03 -18355.318992  11565.114918 -13342.388263      2.635751
PR05  -3412.131941  17250.105036  18473.720768     36.960961
PR07  18476.267242 -11957.377171  12960.992974    -27.589114
PR08  15264.244754 -20155.331723  -3383.077582     15.265080
PR09  13459.202759  13994.334277 -16564.258945     94.159982
PR11   2396.473137 -18522.382768 -17325.827404    -81.640137
PR12  -7270.410000 -24327.237922  -2515.632134     67.563833
PR13 -13228.537609 -16072.961904  14728.430726    -29.266164
PR14 -11158.456590   1295.494112  22919.915455     43.683143
PR15  -2832.250105  17878.032115  18002.271431    104.264584
PR16   7757.203700  24127.327563   2280.913117      3.093288
PR17 -24061.829699   -710.668194  -8502.563055    265.774767
PR18 -12515.150115   7212.156337 -20999.625179      9.838630
PR19   5201.828310  11329.525735 -22253.288674    -57.304033
PR20  21932.135222   9117.550586  -9342.548060   -392.449017
PR21  23748.675460    366.763237   9252.190269    -76.752590
PR22   9778.979466  -8170.663291  22120.561138   -178.603160
PR23 -11488.469743 -11346.290733  19740.768905    258.285880
PR24 -23077.888728  -7988.069662   7333.660222   -185.406656
PR26  20023.646670   9685.143051 -12444.695402     -0.707194
PR27  -5555.726330  13746.325519  20745.462372    126.357811
EOF
